CCSDS_OMM_VERS = 2.0
CREATION_DATE  = 
ORIGINATOR     = 

OBJECT_NAME    = STARLINK-37134
OBJECT_ID      = 2026-055V
CENTER_NAME    = EARTH
REF_FRAME      = TEME
TIME_SYSTEM    = UTC
MEAN_ELEMENT_THEORY = SGP/SGP4

EPOCH          = 2026-04-04T22:00:01.999584
MEAN_MOTION    = 15.80875723
ECCENTRICITY   = .00014515
INCLINATION    = 53.1587
RA_OF_ASC_NODE = 205.6809
ARG_OF_PERICENTER = 31.1713
MEAN_ANOMALY   = 270.9332

EPHEMERIS_TYPE = 0
CLASSIFICATION_TYPE = U
NORAD_CAT_ID   = 68281
ELEMENT_SET_NO = 999
REV_AT_EPOCH   = 385
BSTAR          = .44027088E-3
MEAN_MOTION_DOT = .87089E-3
MEAN_MOTION_DDOT = 0

CCSDS_OMM_VERS = 2.0
CREATION_DATE  = 
ORIGINATOR     = 

OBJECT_NAME    = STARLINK-37160
OBJECT_ID      = 2026-055W
CENTER_NAME    = EARTH
REF_FRAME      = TEME
TIME_SYSTEM    = UTC
MEAN_ELEMENT_THEORY = SGP/SGP4

EPOCH          = 2026-04-04T22:00:01.999584
MEAN_MOTION    = 15.80859822
ECCENTRICITY   = .00006558
INCLINATION    = 53.1586
RA_OF_ASC_NODE = 205.6910
ARG_OF_PERICENTER = 70.0336
MEAN_ANOMALY   = 227.8133

EPHEMERIS_TYPE = 0
CLASSIFICATION_TYPE = U
NORAD_CAT_ID   = 68282
ELEMENT_SET_NO = 999
REV_AT_EPOCH   = 385
BSTAR          = .396398E-3
MEAN_MOTION_DOT = .782E-3
MEAN_MOTION_DDOT = 0

CCSDS_OMM_VERS = 2.0
CREATION_DATE  = 
ORIGINATOR     = 

OBJECT_NAME    = STARLINK-37124
OBJECT_ID      = 2026-055X
CENTER_NAME    = EARTH
REF_FRAME      = TEME
TIME_SYSTEM    = UTC
MEAN_ELEMENT_THEORY = SGP/SGP4

EPOCH          = 2026-04-04T22:00:01.999584
MEAN_MOTION    = 15.80880384
ECCENTRICITY   = .00017749
INCLINATION    = 53.1586
RA_OF_ASC_NODE = 205.6730
ARG_OF_PERICENTER = 61.4801
MEAN_ANOMALY   = 244.9137

EPHEMERIS_TYPE = 0
CLASSIFICATION_TYPE = U
NORAD_CAT_ID   = 68283
ELEMENT_SET_NO = 999
REV_AT_EPOCH   = 385
BSTAR          = .19391013E-3
MEAN_MOTION_DOT = .37754E-3
MEAN_MOTION_DDOT = 0

CCSDS_OMM_VERS = 2.0
CREATION_DATE  = 
ORIGINATOR     = 

OBJECT_NAME    = STARLINK-37159
OBJECT_ID      = 2026-055Y
CENTER_NAME    = EARTH
REF_FRAME      = TEME
TIME_SYSTEM    = UTC
MEAN_ELEMENT_THEORY = SGP/SGP4

EPOCH          = 2026-04-04T22:00:01.999584
MEAN_MOTION    = 15.80869975
ECCENTRICITY   = .00009694
INCLINATION    = 53.1586
RA_OF_ASC_NODE = 205.6642
ARG_OF_PERICENTER = 83.3819
MEAN_ANOMALY   = 227.2493

EPHEMERIS_TYPE = 0
CLASSIFICATION_TYPE = U
NORAD_CAT_ID   = 68284
ELEMENT_SET_NO = 999
REV_AT_EPOCH   = 385
BSTAR          = .55877044E-3
MEAN_MOTION_DOT = .110995E-2
MEAN_MOTION_DDOT = 0

CCSDS_OMM_VERS = 2.0
CREATION_DATE  = 
ORIGINATOR     = 

OBJECT_NAME    = STARLINK-36725
OBJECT_ID      = 2026-055Z
CENTER_NAME    = EARTH
REF_FRAME      = TEME
TIME_SYSTEM    = UTC
MEAN_ELEMENT_THEORY = SGP/SGP4

EPOCH          = 2026-04-04T22:00:01.999584
MEAN_MOTION    = 15.80852881
ECCENTRICITY   = .00010261
INCLINATION    = 53.1587
RA_OF_ASC_NODE = 205.6544
ARG_OF_PERICENTER = 73.8390
MEAN_ANOMALY   = 241.0880

EPHEMERIS_TYPE = 0
CLASSIFICATION_TYPE = U
NORAD_CAT_ID   = 68285
ELEMENT_SET_NO = 999
REV_AT_EPOCH   = 385
BSTAR          = .62771734E-3
MEAN_MOTION_DOT = .124881E-2
MEAN_MOTION_DDOT = 0

CCSDS_OMM_VERS = 2.0
CREATION_DATE  = 
ORIGINATOR     = 

OBJECT_NAME    = STARLINK-36998
OBJECT_ID      = 2026-055AA
CENTER_NAME    = EARTH
REF_FRAME      = TEME
TIME_SYSTEM    = UTC
MEAN_ELEMENT_THEORY = SGP/SGP4

EPOCH          = 2026-04-04T22:00:01.999584
MEAN_MOTION    = 15.80860219
ECCENTRICITY   = .00014393
INCLINATION    = 53.1588
RA_OF_ASC_NODE = 205.6390
ARG_OF_PERICENTER = 63.8184
MEAN_ANOMALY   = 259.6607

EPHEMERIS_TYPE = 0
CLASSIFICATION_TYPE = U
NORAD_CAT_ID   = 68286
ELEMENT_SET_NO = 999
REV_AT_EPOCH   = 385
BSTAR          = .3826212E-3
MEAN_MOTION_DOT = .75436E-3
MEAN_MOTION_DDOT = 0

CCSDS_OMM_VERS = 2.0
CREATION_DATE  = 
ORIGINATOR     = 

OBJECT_NAME    = STARLINK-37165
OBJECT_ID      = 2026-055AB
CENTER_NAME    = EARTH
REF_FRAME      = TEME
TIME_SYSTEM    = UTC
MEAN_ELEMENT_THEORY = SGP/SGP4

EPOCH          = 2026-04-04T22:00:01.999584
MEAN_MOTION    = 15.80842541
ECCENTRICITY   = .00008263
INCLINATION    = 53.1589
RA_OF_ASC_NODE = 205.6283
ARG_OF_PERICENTER = 87.2180
MEAN_ANOMALY   = 240.5324

EPHEMERIS_TYPE = 0
CLASSIFICATION_TYPE = U
NORAD_CAT_ID   = 68287
ELEMENT_SET_NO = 999
REV_AT_EPOCH   = 385
BSTAR          = .63499589E-3
MEAN_MOTION_DOT = .126298E-2
MEAN_MOTION_DDOT = 0

CCSDS_OMM_VERS = 2.0
CREATION_DATE  = 
ORIGINATOR     = 

OBJECT_NAME    = STARLINK-37016
OBJECT_ID      = 2026-055AC
CENTER_NAME    = EARTH
REF_FRAME      = TEME
TIME_SYSTEM    = UTC
MEAN_ELEMENT_THEORY = SGP/SGP4

EPOCH          = 2026-04-04T22:00:01.999584
MEAN_MOTION    = 15.80823055
ECCENTRICITY   = .0001146
INCLINATION    = 53.1588
RA_OF_ASC_NODE = 205.6463
ARG_OF_PERICENTER = 96.5794
MEAN_ANOMALY   = 222.6136

EPHEMERIS_TYPE = 0
CLASSIFICATION_TYPE = U
NORAD_CAT_ID   = 68288
ELEMENT_SET_NO = 999
REV_AT_EPOCH   = 385
BSTAR          = .75394623E-3
MEAN_MOTION_DOT = .150376E-2
MEAN_MOTION_DDOT = 0

CCSDS_OMM_VERS = 2.0
CREATION_DATE  = 
ORIGINATOR     = 

OBJECT_NAME    = STARLINK-37010
OBJECT_ID      = 2026-055AD
CENTER_NAME    = EARTH
REF_FRAME      = TEME
TIME_SYSTEM    = UTC
MEAN_ELEMENT_THEORY = SGP/SGP4

EPOCH          = 2026-04-04T22:00:01.999584
MEAN_MOTION    = 15.80806345
ECCENTRICITY   = .00011129
INCLINATION    = 53.1609
RA_OF_ASC_NODE = 205.6194
ARG_OF_PERICENTER = 60.2399
MEAN_ANOMALY   = 271.7584

EPHEMERIS_TYPE = 0
CLASSIFICATION_TYPE = U
NORAD_CAT_ID   = 68289
ELEMENT_SET_NO = 999
REV_AT_EPOCH   = 385
BSTAR          = .88864192E-3
MEAN_MOTION_DOT = .177798E-2
MEAN_MOTION_DDOT = 0

CCSDS_OMM_VERS = 2.0
CREATION_DATE  = 
ORIGINATOR     = 

OBJECT_NAME    = STARLINK-37151
OBJECT_ID      = 2026-055AE
CENTER_NAME    = EARTH
REF_FRAME      = TEME
TIME_SYSTEM    = UTC
MEAN_ELEMENT_THEORY = SGP/SGP4

EPOCH          = 2026-04-04T22:00:01.999584
MEAN_MOTION    = 15.80827215
ECCENTRICITY   = .00010734
INCLINATION    = 53.1590
RA_OF_ASC_NODE = 205.6104
ARG_OF_PERICENTER = 77.3148
MEAN_ANOMALY   = 258.9673

EPHEMERIS_TYPE = 0
CLASSIFICATION_TYPE = U
NORAD_CAT_ID   = 68290
ELEMENT_SET_NO = 999
REV_AT_EPOCH   = 385
BSTAR          = .73793772E-3
MEAN_MOTION_DOT = .14714E-2
MEAN_MOTION_DDOT = 0

CCSDS_OMM_VERS = 2.0
CREATION_DATE  = 
ORIGINATOR     = 

OBJECT_NAME    = STRIX-6
OBJECT_ID      = 2026-056A
CENTER_NAME    = EARTH
REF_FRAME      = TEME
TIME_SYSTEM    = UTC
MEAN_ELEMENT_THEORY = SGP/SGP4

EPOCH          = 2026-04-04T18:37:23.471040
MEAN_MOTION    = 14.99701469
ECCENTRICITY   = .00165055
INCLINATION    = 50.2837
RA_OF_ASC_NODE = 336.6892
ARG_OF_PERICENTER = 322.5494
MEAN_ANOMALY   = 37.4303

EPHEMERIS_TYPE = 0
CLASSIFICATION_TYPE = U
NORAD_CAT_ID   = 68291
ELEMENT_SET_NO = 999
REV_AT_EPOCH   = 225
BSTAR          = .49311342E-3
MEAN_MOTION_DOT = .5912E-4
MEAN_MOTION_DDOT = 0

CCSDS_OMM_VERS = 2.0
CREATION_DATE  = 
ORIGINATOR     = 

OBJECT_NAME    = ELECTRON KICK STAGE R/B
OBJECT_ID      = 2026-056C
CENTER_NAME    = EARTH
REF_FRAME      = TEME
TIME_SYSTEM    = UTC
MEAN_ELEMENT_THEORY = SGP/SGP4

EPOCH          = 2026-04-04T17:05:50.005248
MEAN_MOTION    = 15.41158011
ECCENTRICITY   = .0152686
INCLINATION    = 50.2918
RA_OF_ASC_NODE = 332.5215
ARG_OF_PERICENTER = 71.7105
MEAN_ANOMALY   = 290.0406

EPHEMERIS_TYPE = 0
CLASSIFICATION_TYPE = U
NORAD_CAT_ID   = 68293
ELEMENT_SET_NO = 999
REV_AT_EPOCH   = 231
BSTAR          = .15390179E-2
MEAN_MOTION_DOT = .100039E-2
MEAN_MOTION_DDOT = 0

