STARLINK-37134          
1 68281U 26055V   26094.91668981  .00087089  00000+0  44027-3 0  9993
2 68281  53.1587 205.6809 0001451  31.1713 270.9332 15.80875723  3851
STARLINK-37160          
1 68282U 26055W   26094.91668981  .00078200  00000+0  39640-3 0  9994
2 68282  53.1586 205.6910 0000655  70.0336 227.8133 15.80859822  3854
STARLINK-37124          
1 68283U 26055X   26094.91668981  .00037754  00000+0  19391-3 0  9995
2 68283  53.1586 205.6730 0001774  61.4801 244.9137 15.80880384  3850
STARLINK-37159          
1 68284U 26055Y   26094.91668981  .00110995  00000+0  55877-3 0  9994
2 68284  53.1586 205.6642 0000969  83.3819 227.2493 15.80869975  3852
STARLINK-36725          
1 68285U 26055Z   26094.91668981  .00124881  00000+0  62772-3 0  9996
2 68285  53.1587 205.6544 0001026  73.8390 241.0880 15.80852881  3850
STARLINK-36998          
1 68286U 26055AA  26094.91668981  .00075436  00000+0  38262-3 0  9995
2 68286  53.1588 205.6390 0001439  63.8184 259.6607 15.80860219  3855
STARLINK-37165          
1 68287U 26055AB  26094.91668981  .00126298  00000+0  63500-3 0  9992
2 68287  53.1589 205.6283 0000826  87.2180 240.5324 15.80842541  3856
STARLINK-37016          
1 68288U 26055AC  26094.91668981  .00150376  00000+0  75395-3 0  9992
2 68288  53.1588 205.6463 0001146  96.5794 222.6136 15.80823055  3857
STARLINK-37010          
1 68289U 26055AD  26094.91668981  .00177798  00000+0  88864-3 0  9995
2 68289  53.1609 205.6194 0001112  60.2399 271.7584 15.80806345  3850
STARLINK-37151          
1 68290U 26055AE  26094.91668981  .00147140  00000+0  73794-3 0  9991
2 68290  53.1590 205.6104 0001073  77.3148 258.9673 15.80827215  3854
STRIX-6                 
1 68291U 26056A   26094.77596610  .00005912  00000+0  49311-3 0  9994
2 68291  50.2837 336.6892 0016505 322.5494  37.4303 14.99701469  2255
ELECTRON KICK STAGE R/B 
1 68293U 26056C   26094.71238432  .00100039  00000+0  15390-2 0  9990
2 68293  50.2918 332.5215 0152686  71.7105 290.0406 15.41158011  2319
